{
    "links": {
        "self": "http://www.neowsapp.com/rest/v1/neo/3536611?api_key=iIulBulltgU6a56xZRHN4H3l9WmuAYTsLGpBGhQ2"
    },
    "id": "3536611",
    "neo_reference_id": "3536611",
    "name": "(2010 NU1)",
    "designation": "2010 NU1",
    "nasa_jpl_url": "http://ssd.jpl.nasa.gov/sbdb.cgi?sstr=3536611",
    "absolute_magnitude_h": 21.1,
    "estimated_diameter": {
        "kilometers": {
            "estimated_diameter_min": 0.160160338,
            "estimated_diameter_max": 0.358129403
        },
        "meters": {
            "estimated_diameter_min": 160.1603379786,
            "estimated_diameter_max": 358.1294030194
        },
        "miles": {
            "estimated_diameter_min": 0.0995189894,
            "estimated_diameter_max": 0.2225312253
        },
        "feet": {
            "estimated_diameter_min": 525.4604432536,
            "estimated_diameter_max": 1174.9652706022
        }
    },
    "is_potentially_hazardous_asteroid": false,
    "close_approach_data": [
        {
            "close_approach_date": "2010-06-24",
            "close_approach_date_full": "2010-Jun-24 19:14",
            "epoch_date_close_approach": 1277406840000,
            "relative_velocity": {
                "kilometers_per_second": "38.2303678663",
                "kilometers_per_hour": "137629.324318793",
                "miles_per_hour": "85517.5098801967"
            },
            "miss_distance": {
                "astronomical": "0.4899248435",
                "lunar": "190.5807641215",
                "kilometers": "73291713.047683345",
                "miles": "45541358.706966361"
            },
            "orbiting_body": "Earth"
        }
    ],
    "orbital_data": {
        "orbit_id": "11",
        "orbit_determination_date": "2018-10-15 06:58:11",
        "first_observation_date": "2010-07-06",
        "last_observation_date": "2010-07-15",
        "data_arc_in_days": 9,
        "observations_used": 21,
        "orbit_uncertainty": "9",
        "minimum_orbit_intersection": ".335406",
        "jupiter_tisserand_invariant": "2.863",
        "epoch_osculation": "2455389.5",
        "eccentricity": ".7971292978259154",
        "semi_major_axis": "2.375872057825649",
        "inclination": "34.49706998866294",
        "ascending_node_longitude": "105.2156368610489",
        "orbital_period": "1337.620764008611",
        "perihelion_distance": ".4819948326468769",
        "perihelion_argument": "42.03665497785614",
        "aphelion_distance": "4.269749283004422",
        "perihelion_time": "2455326.376501021721",
        "mean_anomaly": "16.98871626669377",
        "mean_motion": ".2691345781155073",
        "equinox": "J2000",
        "orbit_class": {
            "orbit_class_type": "APO",
            "orbit_class_description": "Near-Earth asteroid orbits which cross the Earth’s orbit similar to that of 1862 Apollo",
            "orbit_class_range": "a (semi-major axis) > 1.0 AU; q (perihelion) < 1.017 AU"
        }
    },
    "is_sentry_object": false
}